ARIANE 40 R/B           
1 20443U 90005H   26038.16774622  .00000376  00000+0  13314-3 0  9991
2 20443  98.3151  99.7284 0009011 299.5427  60.4862 14.39849973888412
DELTA 2 R/B(1)          
1 20453U 90008B   26038.04700079  .00076100  00000+0  10098-2 0  9990
2 20453  35.6060  15.2946 0095330 332.8975  26.6804 15.51735671921368
COSMOS 2058             
1 20465U 90010A   26038.18901225  .00005131  00000+0  30481-3 0  9992
2 20465  82.4636  77.4750 0012077  82.1778 278.0822 15.11040033937633
SL-14 R/B               
1 20466U 90010B   26038.13334546  .00000645  00000+0  75200-4 0  9998
2 20466  82.5030 296.0916 0020923  43.7911 316.4958 14.83542188923950
SL-14 R/B               
1 20511U 90018B   26038.18917852  .00000538  00000+0  64565-4 0  9992
2 20511  82.5182 251.6048 0016094 187.5334 172.5641 14.82113295918060
HST                     
1 20580U 90037B   26037.81329490  .00008603  00000+0  28897-3 0  9991
2 20580  28.4665 250.5538 0001883 124.2340 235.8434 15.28986369768582
SL-16 R/B               
1 20625U 90046B   26038.15833215  .00000129  00000+0  91113-4 0  9991
2 20625  71.0000   2.0319 0014613 342.0403  18.0202 14.15005540844072
COSMOS 2084             
1 20663U 90055A   26038.16919405  .00003381  00000+0  24701-3 0  9991
2 20663  62.7897  79.6572 0021936 183.6977 176.3965 15.05453600931724
SL-6 R/B(2)             
1 20666U 90055D   26038.17709640  .00003691  00000+0  28318-3 0  9995
2 20666  62.7853 357.5995 0020202 338.2431  21.7808 15.03432264933603
SL-8 R/B                
1 20775U 90078B   26038.12430907  .00018978  00000+0  55994-3 0  9997
2 20775  82.9020 278.7760 0367200 116.4027 247.5372 14.88052929804752
SL-8 R/B                
1 21088U 91006B   26037.98370255  .00000026  00000+0  10144-4 0  9993
2 21088  82.9428 192.8748 0023545 119.9931   0.8838 13.77491992759847
OKEAN-3                 
1 21397U 91039A   26037.95554753  .00004563  00000+0  32262-3 0  9990
2 21397  82.5182   6.6087 0016497  77.5893 282.7178 15.04560231860414
COSMOS 2151             
1 21422U 91042A   26038.19846115  .00002713  00000+0  21587-3 0  9999
2 21422  82.4964 113.0885 0013164 156.3093 203.8740 14.99987219858626
SL-14 R/B               
1 21423U 91042B   26038.10074090  .00000506  00000+0  61011-4 0  9991
2 21423  82.4899 248.8735 0016684 346.7344  13.3429 14.81800423848549
ERS-1                   
1 21574U 91050A   26038.04275588  .00000470  00000+0  16499-3 0  9994
2 21574  98.7896  55.5066 0030961 294.0185  65.7762 14.39424073811328
ARIANE 40 R/B           
1 21610U 91050F   26038.16656989  .00000421  00000+0  13866-3 0  9997
2 21610  98.2077  91.5389 0003713 149.2324 210.9084 14.42870815814590
INTERCOSMOS 25          
1 21819U 91086A   26037.86188166  .00001154  00000+0  22376-3 0  9990
2 21819  82.6087 328.6369 1486682 183.3455 175.6722 12.11914456492958
SL-8 R/B                
1 21876U 92008B   26038.19092538  .00000063  00000+0  49030-4 0  9997
2 21876  82.9267 290.4669 0033758 218.3696 253.5748 13.75969598705229
SL-8 R/B                
1 21938U 92020B   26037.93481414  .00000142  00000+0  13167-3 0  9995
2 21938  82.9327 176.5892 0029408  26.0900  91.1263 13.75544791696902
USA 81                  
1 21949U 92023A   26037.92128344  .00000296  00000+0  10223-3 0  9999
2 21949  85.0119 149.1820 0002549 105.0087 255.1388 14.32356434 90384
COSMOS 2219             
1 22219U 92076A   26038.17418407 -.00000132  00000+0 -44483-4 0  9995
2 22219  71.0585  81.8640 0020405 249.1103 110.7835 14.14076807714063
SL-16 R/B               
1 22220U 92076B   26038.06672794  .00000173  00000+0  11011-3 0  9999
2 22220  70.9980 252.8814 0011605 150.8095 323.8049 14.16855283717494
COSMOS 2221             
1 22236U 92080A   26038.13984429  .00002932  00000+0  25835-3 0  9994
2 22236  82.5059 308.3384 0013001 299.6145  60.3781 14.96078104776225
SL-16 R/B               
1 22285U 92093B   26038.13928854 -.00000153  00000+0 -53876-4 0  9994
2 22285  71.0201  68.4017 0005100 325.5996  34.4796 14.15441178708838
COSMOS 2228             
1 22286U 92094A   26038.10932884  .00002977  00000+0  25533-3 0  9993
2 22286  82.5157 266.5938 0019184  47.8927 312.3922 14.97050400771488
SL-16 R/B               
1 22566U 93016B   26038.10597419 -.00000084  00000+0 -18897-4 0  9995
2 22566  71.0072 279.4199 0010199 356.0853   4.0188 14.15304015697840
COSMOS 2242             
1 22626U 93024A   26038.14548498  .00002743  00000+0  23901-3 0  9991
2 22626  82.5193 295.9303 0017688  51.2919 308.9881 14.96422244775820
SL-16 R/B               
1 22803U 93059B   26038.19751442  .00000225  00000+0  13515-3 0  9999
2 22803  70.9892  75.4314 0019491 258.3193 101.5744 14.17226937675216
ARIANE 40 R/B           
1 22830U 93061H   26038.18248737  .00000279  00000+0  11820-3 0  9995
2 22830  98.4981 107.6623 0010913  20.5486 339.6135 14.32844723689731
COSMOS 2278             
1 23087U 94023A   26037.97417979 -.00000189  00000+0 -73860-4 0  9996
2 23087  71.0502 239.3599 0006539  71.3945 288.7887 14.14364063640469
SL-16 R/B               
1 23088U 94023B   26037.75182328 -.00000023  00000+0  12581-4 0  9999
2 23088  70.9998 135.8619 0004457 314.1094  45.9661 14.15003498641715
SL-16 R/B               
1 23343U 94074B   26038.07916123  .00000690  00000+0  99252-4 0  9992
2 23343  97.7149  70.1312 0005784 332.8982  50.3189 14.79371264682722
SL-16 R/B               
1 23405U 94077B   26038.16950539  .00000037  00000+0  43333-4 0  9997
2 23405  70.9814  56.6979 0004363 237.7421 122.3279 14.15556792611918
ARIANE 40+ R/B          
1 23561U 95021B   26038.16764017  .00000409  00000+0  14436-3 0  9998
2 23561  98.4560 110.0542 0005994 226.3215 187.7433 14.39749779614859
SL-16 R/B               
1 23705U 95058B   26038.03366161  .00000310  00000+0  18300-3 0  9997
2 23705  71.0189 244.6166 0012370 176.1023 184.0199 14.15491427563517
SL-16 R/B               
1 24298U 96051B   26038.00455923  .00000078  00000+0  68908-4 0  9992
2 24298  70.7565 240.1888 0017656 190.8812 169.1929 14.12406829517313
ORBVIEW 2 (SEASTAR)     
1 24883U 97037A   26038.02752419  .00000439  00000+0  16890-3 0  9992
2 24883  98.8513 201.5363 0002871 134.4893 225.6527 14.35470823504073
SL-16 R/B               
1 25400U 98043G   26037.92979722  .00000125  00000+0  71275-4 0  9993
2 25400  98.8205 351.0855 0010887 102.3401 257.8998 14.26042352434601
SL-16 R/B               
1 25407U 98045B   26037.98902717 -.00000104  00000+0 -28613-4 0  9995
2 25407  71.0084 246.1368 0005298  65.3371 294.8304 14.16185255422757
ISS (ZARYA)             
1 25544U 98067A   26037.85745963  .00012189  00000+0  23308-3 0  9994
2 25544  51.6318 224.7731 0011112  72.2083 288.0117 15.48447561551553
CZ-4B R/B               
1 25732U 99025C   26038.10967656  .00000066  00000+0  52420-4 0  9991
2 25732  98.6688  83.1071 0038124  73.5070 305.5811 14.18259191383835
OKEAN-O                 
1 25860U 99039A   26038.16682434  .00001024  00000+0  14129-3 0  9990
2 25860  97.9510  98.3582 0001890  88.0837 272.0592 14.80285300429879
SL-16 R/B               
1 25861U 99039B   26038.17554824  .00000806  00000+0  10905-3 0  9998
2 25861  98.0032  97.3070 0014758   1.9945 358.1324 14.81688141432349
DELTA 2 R/B             
1 25876U 99041E   26038.07127911  .00002590  00000+0  45399-3 0  9996
2 25876  51.7647  63.5496 0502343 257.9708  96.4518 14.11713242358700
HELIOS 1B               
1 25977U 99064A   26038.17695155  .00002461  00000+0  27737-3 0  9997
2 25977  98.1725 299.5198 0001998 118.0683 242.0735 14.87571201680723
TERRA                   
1 25994U 99068A   26038.17038218  .00000659  00000+0  14349-3 0  9993
2 25994  97.9658  92.7609 0000946 284.1599 139.5232 14.60981426390621
SL-16 R/B               
1 26070U 00006B   26037.78448905 -.00000007  00000+0  20932-4 0  9991
2 26070  71.0029 162.8182 0018434 233.6478 126.2944 14.15820725344180
TITAN 4B R/B            
1 26474U 00047B   26038.14874669  .00004847  00000+0  30670-3 0  9999
2 26474  67.9892 126.3740 0037016  72.9683 287.5516 15.09308887388306
ENVISAT                 
1 27386U 02009A   26037.87922071  .00000207  00000+0  80828-4 0  9999
2 27386  98.3677 352.2206 0001287  91.1052 330.6483 14.39025268254743
IDEFIX & ARIANE 42P R/B 
1 27422U 02021B   26037.94060638  .00000442  00000+0  18454-3 0  9990
2 27422  98.5841 336.9207 0010720 279.8267  80.1706 14.31003771239626
AQUA                    
1 27424U 02022A   26038.16444229  .00001571  00000+0  32392-3 0  9991
2 27424  98.4121   4.9870 0001563  54.3508  35.0968 14.61900780264272
CZ-4B R/B               
1 27432U 02024C   26038.16340655  .00000049  00000+0  48111-4 0  9996
2 27432  98.8905  91.7139 0051134 109.4703 318.3857 14.14542108224921
MIDORI II (ADEOS-II)    
1 27597U 02056A   26037.86133983  .00000488  00000+0  20968-3 0  9999
2 27597  98.7717 356.1373 0002140  86.3162 273.8264 14.29261474205898
H-2A R/B                
1 27601U 02056E   26037.86114762  .00000460  00000+0  17603-3 0  9991
2 27601  98.3148 359.4112 0069027 253.2941 167.2097 14.33738512209691
CZ-4B R/B               
1 28059U 03049C   26037.98789654  .00000721  00000+0  17686-3 0  9994
2 28059  98.6846  31.6967 0047558 326.6484  33.1718 14.54986175182139
CZ-2C R/B               
1 28222U 04012C   26038.12848833  .00059506  00000+0  70099-3 0  9991
2 28222  97.7303 100.6009 0016151  65.7418 294.5523 15.61045570199506
SL-16 R/B               
1 28353U 04021B   26038.12129681  .00000069  00000+0  60672-4 0  9996
2 28353  71.0002 296.6458 0002885  86.3594 273.7859 14.14589586118519
CZ-4B R/B               
1 28415U 04035C   26038.08034427  .00010666  00000+0  38051-3 0  9997
2 28415  97.3549  72.6960 0034212  78.1951 282.3123 15.28497441175236
CZ-2C R/B               
1 28480U 04046B   26038.19413558  .00000221  00000+0  97756-4 0  9993
2 28480  98.1996 315.0719 0138262 244.8981 113.7801 14.26981317104154
